STARLINK-37396          
1 69256U 26117U   26157.91670139 -.02233288  14016-2 -52879-2 0  9999
2 69256  53.1567 294.9049 0000610  49.0695 264.9228 15.96254550  2595
STARLINK-37508          
1 69257U 26117V   26157.91670139 -.02258084  14359-2 -52702-2 0  9996
2 69257  53.1565 294.8902 0000461  50.5349 270.3120 15.96520246  2510
STARLINK-37276          
1 69258U 26117W   26157.91670139 -.01880084  10702-2 -33610-2 0  9992
2 69258  53.1561 294.8180 0000571  38.8503 316.3267 16.01210458  2519
STARLINK-37518          
1 69259U 26117X   26157.91670139 -.01855571  10434-2 -33297-2 0  9999
2 69259  53.1558 294.8066 0000492  45.4240 315.6271 16.01142482  2522
STARLINK-37478          
1 69260U 26117Y   26157.91670139 -.02018002  12118-2 -37811-2 0  9999
2 69260  53.1560 294.8028 0000623  39.8838 322.9928 16.00412574  2522
STARLINK-37506          
1 69261U 26117Z   26157.91670139 -.02055044  12551-2 -38408-2 0  9991
2 69261  53.1556 294.7934 0000696  39.9594 327.3592 16.00460119  2527
STARLINK-37503          
1 69262U 26117AA  26157.91670139 -.02124274  13367-2 -39760-2 0  9992
2 69262  53.1558 294.7809 0000652  44.4127 328.5639 16.00440983  2528
STARLINK-37502          
1 69263U 26117AB  26157.91670139 -.02078078  12777-2 -39485-2 0  9991
2 69263  53.1556 294.7752 0000783  37.0728 338.4951 16.00174774  2523
STARLINK-37486          
1 69264U 26117AC  26157.91670139 -.02050640  12464-2 -38866-2 0  9992
2 69264  53.1554 294.7636 0000667  39.9035 341.4131 16.00215808  2524
STARLINK-37435          
1 69265U 26117AD  26157.91670139 -.02040350  12421-2 -37532-2 0  9992
2 69265  53.1555 294.7446 0000745  42.5215 347.3738 16.00734369  2528
STARLINK-37464          
1 69266U 26117AE  26157.91670139 -.02041745  12509-2 -36508-2 0  9991
2 69266  53.1553 294.7260 0000777  42.9460 355.8124 16.01223551  2522
KUIPER-00282            
1 69267U 26118A   26157.91670139  .00009243  00000+0  27745-3 0  9990
2 69267  51.8576 103.0469 0011916 145.2134 121.0659 15.35109384  1773
KUIPER-00383            
1 69268U 26118B   26157.91670139  .00009771  00000+0  28825-3 0  9997
2 69268  51.8581 103.0213 0011201 143.7165 135.0808 15.35595130  1837
KUIPER-00527            
1 69269U 26118C   26157.91670139  .00012629  00000+0  36495-3 0  9996
2 69269  51.8608 103.0015 0009788 137.1276 151.5488 15.35971517  1301
KUIPER-00562            
1 69270U 26118D   26157.91670139  .00010294  00000+0  27744-3 0  9991
2 69270  51.8720 102.8599 0002034  90.3482 261.4993 15.38405367  2365
KUIPER-00570            
1 69271U 26118E   26157.91670139  .00027117  00000+0  77881-3 0  9991
2 69271  51.8567 103.0212 0011448 148.0618 130.7030 15.35581734  1955
KUIPER-00572            
1 69272U 26118F   26157.91670139  .00011535  00000+0  32610-3 0  9990
2 69272  51.8666 102.9659 0007561 135.1087 170.3392 15.36771631  1709
KUIPER-00581            
1 69273U 26118G   26157.91670139  .00012453  00000+0  35466-3 0  9993
2 69273  51.8645 102.9855 0009060 138.9872 157.3623 15.36447578  2493
KUIPER-00584            
1 69274U 26118H   26157.91670139  .00009199  00000+0  27490-3 0  9995
2 69274  51.8593 103.0386 0011420 151.5708 118.7977 15.35262823  1308
KUIPER-00587            
1 69275U 26118J   26157.91670139  .00010890  00000+0  31180-3 0  9997
2 69275  51.8619 102.9795 0008598 141.2316 158.2574 15.36428502  1304
KUIPER-00590            
1 69276U 26118K   26157.91670139  .00012352  00000+0  33881-3 0  9993
2 69276  51.8683 102.9137 0004507 122.5143 208.0775 15.37655341  2258
KUIPER-00592            
1 69277U 26118L   26157.91670139  .00011012  00000+0  30119-3 0  9997
2 69277  51.8705 102.8985 0003866 102.1925 234.3058 15.37869810  1302
KUIPER-00593            
1 69278U 26118M   26157.91670139  .00011613  00000+0  31797-3 0  9998
2 69278  51.8710 102.8987 0004233 118.2576 217.5170 15.37775961  2469
KUIPER-00594            
1 69279U 26118N   26157.91670139  .00010758  00000+0  28771-3 0  9996
2 69279  51.8718 102.8524 0001450  62.5823 294.8854 15.38594214  1297
KUIPER-00595            
1 69280U 26118P   26157.91670139  .00010922  00000+0  29501-3 0  9993
2 69280  51.8710 102.8704 0002108 103.0658 246.8467 15.38270046  2437
KUIPER-00596            
1 69281U 26118Q   26157.91670139  .00009614  00000+0  28371-3 0  9994
2 69281  51.8540 103.0312 0012169 147.1926 126.2509 15.35594758  1705
KUIPER-00597            
1 69282U 26118R   26157.91670139  .00036160  00000+0  99041-3 0  9993
2 69282  51.8642 102.9518 0007260 135.4428 177.4297 15.36950901  1303
KUIPER-00599            
1 69283U 26118S   26157.91670139  .00012510  00000+0  34863-3 0  9998
2 69283  51.8685 102.9412 0006478 127.6097 189.3190 15.37140401  1502
KUIPER-00600            
1 69284U 26118T   26157.91670139  .00011327  00000+0  32272-3 0  9996
2 69284  51.8632 102.9764 0009216 136.3011 164.6194 15.36533838  2286
