OBJECT_NAME,OBJECT_ID,EPOCH,MEAN_MOTION,ECCENTRICITY,INCLINATION,RA_OF_ASC_NODE,ARG_OF_PERICENTER,MEAN_ANOMALY,EPHEMERIS_TYPE,CLASSIFICATION_TYPE,NORAD_CAT_ID,ELEMENT_SET_NO,REV_AT_EPOCH,BSTAR,MEAN_MOTION_DOT,MEAN_MOTION_DDOT
STARLINK-37396,2026-117U,2026-06-06T22:00:03.000096,15.96254550,.00006108,53.1567,294.9049,49.0695,264.9228,0,U,69256,999,259,-.52879363E-2,-.2233288E-1,.14016163E-2
STARLINK-37508,2026-117V,2026-06-06T22:00:03.000096,15.96520246,.00004612,53.1565,294.8902,50.5349,270.3120,0,U,69257,999,251,-.52701807E-2,-.2258084E-1,.14358667E-2
STARLINK-37276,2026-117W,2026-06-06T22:00:03.000096,16.01210458,.00005711,53.1561,294.8180,38.8503,316.3267,0,U,69258,999,251,-.33610088E-2,-.1880084E-1,.10702156E-2
STARLINK-37518,2026-117X,2026-06-06T22:00:03.000096,16.01142482,.0000492,53.1558,294.8066,45.4240,315.6271,0,U,69259,999,252,-.33297499E-2,-.1855571E-1,.10433708E-2
STARLINK-37478,2026-117Y,2026-06-06T22:00:03.000096,16.00412574,.00006233,53.1560,294.8028,39.8838,322.9928,0,U,69260,999,252,-.37811162E-2,-.2018002E-1,.12118188E-2
STARLINK-37506,2026-117Z,2026-06-06T22:00:03.000096,16.00460119,.00006961,53.1556,294.7934,39.9594,327.3592,0,U,69261,999,252,-.38407955E-2,-.2055044E-1,.12550959E-2
STARLINK-37503,2026-117AA,2026-06-06T22:00:03.000096,16.00440983,.00006523,53.1558,294.7809,44.4127,328.5639,0,U,69262,999,252,-.39760166E-2,-.2124274E-1,.13366754E-2
STARLINK-37502,2026-117AB,2026-06-06T22:00:03.000096,16.00174774,.00007834,53.1556,294.7752,37.0728,338.4951,0,U,69263,999,252,-.39484884E-2,-.2078078E-1,.12777154E-2
STARLINK-37486,2026-117AC,2026-06-06T22:00:03.000096,16.00215808,.0000667,53.1554,294.7636,39.9035,341.4131,0,U,69264,999,252,-.3886646E-2,-.205064E-1,.12464158E-2
STARLINK-37435,2026-117AD,2026-06-06T22:00:03.000096,16.00734369,.00007452,53.1555,294.7446,42.5215,347.3738,0,U,69265,999,252,-.37531997E-2,-.204035E-1,.12420905E-2
STARLINK-37464,2026-117AE,2026-06-06T22:00:03.000096,16.01223551,.00007778,53.1553,294.7260,42.9460,355.8124,0,U,69266,999,252,-.36508463E-2,-.2041745E-1,.12509268E-2
KUIPER-00282,2026-118A,2026-06-06T22:00:03.000096,15.35109384,.00119165,51.8576,103.0469,145.2134,121.0659,0,U,69267,999,177,.27744738E-3,.9243E-4,0
KUIPER-00383,2026-118B,2026-06-06T22:00:03.000096,15.35595130,.00112012,51.8581,103.0213,143.7165,135.0808,0,U,69268,999,183,.28824769E-3,.9771E-4,0
KUIPER-00527,2026-118C,2026-06-06T22:00:03.000096,15.35971517,.00097884,51.8608,103.0015,137.1276,151.5488,0,U,69269,999,130,.36494895E-3,.12629E-3,0
KUIPER-00562,2026-118D,2026-06-06T22:00:03.000096,15.38405367,.00020343,51.8720,102.8599,90.3482,261.4993,0,U,69270,999,236,.27744218E-3,.10294E-3,0
KUIPER-00570,2026-118E,2026-06-06T22:00:03.000096,15.35581734,.00114486,51.8567,103.0212,148.0618,130.7030,0,U,69271,999,195,.77880559E-3,.27117E-3,0
KUIPER-00572,2026-118F,2026-06-06T22:00:03.000096,15.36771631,.00075617,51.8666,102.9659,135.1087,170.3392,0,U,69272,999,170,.32609516E-3,.11535E-3,0
KUIPER-00581,2026-118G,2026-06-06T22:00:03.000096,15.36447578,.00090606,51.8645,102.9855,138.9872,157.3623,0,U,69273,999,249,.3546639E-3,.12453E-3,0
KUIPER-00584,2026-118H,2026-06-06T22:00:03.000096,15.35262823,.001142,51.8593,103.0386,151.5708,118.7977,0,U,69274,999,130,.27490485E-3,.9199E-4,0
KUIPER-00587,2026-118J,2026-06-06T22:00:03.000096,15.36428502,.0008598,51.8619,102.9795,141.2316,158.2574,0,U,69275,999,130,.31179681E-3,.1089E-3,0
KUIPER-00590,2026-118K,2026-06-06T22:00:03.000096,15.37655341,.00045075,51.8683,102.9137,122.5143,208.0775,0,U,69276,999,225,.33881306E-3,.12352E-3,0
KUIPER-00592,2026-118L,2026-06-06T22:00:03.000096,15.37869810,.00038662,51.8705,102.8985,102.1925,234.3058,0,U,69277,999,130,.30118688E-3,.11012E-3,0
KUIPER-00593,2026-118M,2026-06-06T22:00:03.000096,15.37775961,.00042337,51.8710,102.8987,118.2576,217.5170,0,U,69278,999,246,.31796706E-3,.11613E-3,0
KUIPER-00594,2026-118N,2026-06-06T22:00:03.000096,15.38594214,.00014503,51.8718,102.8524,62.5823,294.8854,0,U,69279,999,129,.28770862E-3,.10758E-3,0
KUIPER-00595,2026-118P,2026-06-06T22:00:03.000096,15.38270046,.00021085,51.8710,102.8704,103.0658,246.8467,0,U,69280,999,243,.2950102E-3,.10922E-3,0
KUIPER-00596,2026-118Q,2026-06-06T22:00:03.000096,15.35594758,.00121693,51.8540,103.0312,147.1926,126.2509,0,U,69281,999,170,.28370695E-3,.9614E-4,0
KUIPER-00597,2026-118R,2026-06-06T22:00:03.000096,15.36950901,.00072605,51.8642,102.9518,135.4428,177.4297,0,U,69282,999,130,.99041461E-3,.3616E-3,0
KUIPER-00599,2026-118S,2026-06-06T22:00:03.000096,15.37140401,.00064784,51.8685,102.9412,127.6097,189.3190,0,U,69283,999,150,.34862544E-3,.1251E-3,0
KUIPER-00600,2026-118T,2026-06-06T22:00:03.000096,15.36533838,.00092167,51.8632,102.9764,136.3011,164.6194,0,U,69284,999,228,.32272375E-3,.11327E-3,0
